[{"OBJECT_NAME":"HYPERFIELD-1A","OBJECT_ID":"2024-149CY","EPOCH":"2026-03-09T18:21:25.814304","MEAN_MOTION":15.29681349,"ECCENTRICITY":0.00038648,"INCLINATION":97.3842,"RA_OF_ASC_NODE":149.5066,"ARG_OF_PERICENTER":313.7844,"MEAN_ANOMALY":46.3076,"EPHEMERIS_TYPE":0,"CLASSIFICATION_TYPE":"U","NORAD_CAT_ID":60562,"ELEMENT_SET_NO":999,"REV_AT_EPOCH":8683,"BSTAR":0.00030052114,"MEAN_MOTION_DOT":8.569e-5,"MEAN_MOTION_DDOT":0},{"OBJECT_NAME":"STARLINK-35870","OBJECT_ID":"2025-268R","EPOCH":"2026-03-08T11:53:59.419104","MEAN_MOTION":15.27602843,"ECCENTRICITY":1.431e-5,"INCLINATION":43.001,"RA_OF_ASC_NODE":354.1122,"ARG_OF_PERICENTER":225.0235,"MEAN_ANOMALY":135.0605,"EPHEMERIS_TYPE":0,"CLASSIFICATION_TYPE":"U","NORAD_CAT_ID":66572,"ELEMENT_SET_NO":999,"REV_AT_EPOCH":1777,"BSTAR":5.097385e-5,"MEAN_MOTION_DOT":1.142e-5,"MEAN_MOTION_DDOT":0}]
